SES-10                  
1 42432U 17017A   18257.20496995 -.00000297  00000-0  00000+0 0  9996
2 42432   0.0162 148.1841 0002550  17.9221 193.9008  1.00269500  5375
CHINASAT 16 (SJ-13)     
1 42662U 17018A   18256.71341163 -.00000377  00000-0  00000-0 0  9993
2 42662   0.0778  96.8554 0006674 126.4670 136.6270  1.00268353  5312
KOREASAT 7              
1 42691U 17023A   18256.69855322 -.00000387  00000-0  00000+0 0  9995
2 42691   0.0174 111.5278 0001707  52.7568 195.7221  1.00269885  5033
SGDC                    
1 42692U 17023B   18256.22969322 -.00000275  00000-0  00000-0 0  9998
2 42692   0.0163  92.0108 0002130  75.3229 192.6724  1.00271121  5011
GSAT-9                  
1 42695U 17024A   18256.74999940 -.00000312  00000-0  00000-0 0  9990
2 42695   0.1117 280.1469 0001997 240.3213 199.5407  1.00271810  4929
INMARSAT 5-F4           
1 42698U 17025A   18256.98913039  .00000051  00000-0  00000+0 0  9993
2 42698   0.0679 117.0221 0000139 174.2198  68.7586  1.00273327  4865
SES-15                  
1 42709U 17026A   18257.37734041  .00000036  00000-0  00000+0 0  9998
2 42709   0.0004 190.0942 0000711 322.8958 207.0161  1.00272522  5776
VIASAT-2                
1 42740U 17029A   18257.21316225 -.00000290  00000-0  00000+0 0  9992
2 42740   0.0180 146.4899 0000841  86.1067 127.3979  1.00274421  4788
EUTELSAT 172B           
1 42741U 17029B   18256.54308173 -.00000031  00000-0  00000-0 0  9995
2 42741   0.0104 203.7428 0000959  72.1571  84.0904  1.00272545  5317
GSAT-19                 
1 42747U 17031A   18255.88981376  .00000099  00000-0  00000+0 0  9994
2 42747   0.0094 185.5195 0003514 283.7308 250.7879  1.00272829  4718
ECHOSTAR 21             
1 42749U 17032A   18256.92295402  .00000038  00000-0  00000+0 0  9994
2 42749   6.7234 316.6065 0001832 234.5368 144.2032  1.00272288  4710
CHINASAT 9A (ZX 9A)     
1 42763U 17035A   18256.98028036 -.00000337  00000-0  00000-0 0  9990
2 42763   0.0134 182.5994 0003187 293.3742 331.2447  1.00268806  5245
BULGARIASAT-1           
1 42801U 17038A   18256.01707845 -.00000015  00000-0  00000+0 0  9994
2 42801   0.0336 262.9750 0002695 265.4073 191.6243  1.00272221  4499
HELLAS-SAT 3            
1 42814U 17040A   18255.91432287  .00000126  00000-0  00000+0 0  9996
2 42814   0.0632   9.8967 0001852  88.4015 261.7230  1.00269447  4472
GSAT-17                 
1 42815U 17040B   18256.76052949 -.00000283  00000-0  00000+0 0  9999
2 42815   0.0096 164.7803 0002990  92.3851 102.8028  1.00273195  4467
INTELSAT 35E (IS-35E)   
1 42818U 17041A   18257.11519169 -.00000262  00000-0  00000+0 0  9992
2 42818   0.0325 238.5842 0001508 297.2440 184.1750  1.00273764  4436
COSMOS 2520             
1 42907U 17046A   18257.52132642  .00000113  00000-0  00000+0 0  9992
2 42907   0.0220 107.7449 0002658 194.2405 284.1401  1.00273970  3985
TDRS 13                 
1 42915U 17047A   18256.07824616 -.00000314  00000-0  00000-0 0  9995
2 42915   6.5205 331.1396 0026521   8.6771 351.3476  1.00264897  3933
QZS-3                   
1 42917U 17048A   18256.66782225 -.00000373  00000-0  00000-0 0  9997
2 42917   0.0587 222.0118 0001421 282.0660 215.9330  1.00275425  3847
AMAZONAS 5              
1 42934U 17053A   18257.18864366 -.00000307  00000-0  00000+0 0  9993
2 42934   0.0150 262.7509 0001731 295.6475 161.5953  1.00270988  3728
ASIASAT 9               
1 42942U 17057A   18256.94528640 -.00000384  00000-0  00000-0 0  9997
2 42942   0.0062 192.7363 0002041 328.5425 293.9949  1.00270888  3538
INTELSAT 37E (IS-37E)   
1 42950U 17059A   18257.06948995 -.00000165  00000-0  00000+0 0  9997
2 42950   0.0109 171.7475 0002511   0.2590 187.9995  1.00272228  3644
BSAT-4A                 
1 42951U 17059B   18256.71538504 -.00000375  00000-0  00000+0 0  9993
2 42951   0.0544   9.7627 0002220  88.4366 261.8272  1.00270843  3543
SES-11 (ECHOSTAR 105)   
1 42967U 17063A   18257.31036767 -.00000113  00000-0  00000+0 0  9996
2 42967   0.0111 190.7640 0002445 339.7056 189.5373  1.00271947  3413
KOREASAT 5A             
1 42984U 17067A   18256.70617864 -.00000383  00000-0  00000-0 0  9994
2 42984   0.0194 132.6346 0001616  22.1732 205.2014  1.00270596  3129
ALCOMSAT 1              
1 43039U 17078A   18256.09094180 -.00000211  00000-0  00000+0 0  9999
2 43039   0.0490 299.0767 0003975 226.1349 194.8004  1.00278912  2878
GOES-S                  
1 43226U 18022A   18257.26748465 -.00000207  00000-0  00000+0 0  9994
2 43226   0.0225 344.0948 0000360 230.2434 145.6617  1.00273068  2039
HISPASAT 30W-6          
1 43228U 18023A   18257.10272844 -.00000240  00000-0  00000+0 0  9990
2 43228   0.0409  48.4172 0002979  99.8068 211.7959  1.00270326  2093
SUPERBIRD 8             
1 43271U 18033A   18256.57081589 -.00000118  00000-0  00000+0 0  9997
2 43271   0.0228 172.4060 0001173   6.3460 181.2483  1.00270570  1653
HYLAS 4                 
1 43272U 18033B   18257.11240837 -.00000257  00000-0  00000+0 0  9996
2 43272   0.0605 125.6378 0004449  47.0140 187.3568  1.00274009  1686
BANGABANDHUSAT-1        
1 43463U 18044A   18256.68966963 -.00000388  00000-0  00000-0 0  9992
2 43463   0.0107 177.5803 0002319 353.5272 188.8981  1.00273159  1308
FENGYUN 2H              
1 43491U 18050A   18257.08027450 -.00000154  00000-0  00000+0 0  9994
2 43491   2.1362 285.2435 0004125 259.1989 276.7133  1.00271252  1102
